{
  "type": "FeatureCollection",
  "features": [
    {
      "type": "Feature",
      "properties": {
        "norad_id": 25590,
        "name": "COSMOS 2361",
        "group": "musson",
        "lat": 42.93191241173802,
        "lon": -19.266321955607122,
        "alt_km": 1006.779725323494,
        "timestamp": "2025-12-26T05:31:12.777356+00:00",
        "meta_object_name": "COSMOS 2361",
        "meta_object_id": "1998-076A",
        "meta_epoch": "2025-12-25T22:34:17.559264",
        "meta_mean_motion": 13.73218939,
        "meta_eccentricity": 0.00303504,
        "meta_inclination": 82.9346,
        "meta_ra_of_asc_node": 334.3225,
        "meta_arg_of_pericenter": 227.4099,
        "meta_mean_anomaly": 185.4885,
        "meta_ephemeris_type": 0,
        "meta_classification_type": "U",
        "meta_norad_cat_id": 25590,
        "meta_element_set_no": 999,
        "meta_rev_at_epoch": 35292,
        "meta_bstar": 5.7758649e-05,
        "meta_mean_motion_dot": 6.9e-07,
        "meta_mean_motion_ddot": 0,
        "tle_line1": "1 25590U 98076A   25359.94048101  .00000069  00000+0  57759-4 0  9993",
        "tle_line2": "2 25590  82.9346 334.3225 0030350 227.4099 185.4885 13.73218939352927"
      },
      "geometry": {
        "type": "Point",
        "coordinates": [
          -19.266321955607122,
          42.93191241173802
        ]
      }
    },
    {
      "type": "Feature",
      "properties": {
        "norad_id": 26818,
        "name": "COSMOS 2378",
        "group": "musson",
        "lat": 18.920897717701042,
        "lon": 167.28225656420273,
        "alt_km": 960.559141466083,
        "timestamp": "2025-12-26T05:31:12.777377+00:00",
        "meta_object_name": "COSMOS 2378",
        "meta_object_id": "2001-023A",
        "meta_epoch": "2025-12-25T23:45:24.647040",
        "meta_mean_motion": 13.74143057,
        "meta_eccentricity": 0.00332428,
        "meta_inclination": 82.9272,
        "meta_ra_of_asc_node": 349.8993,
        "meta_arg_of_pericenter": 167.7968,
        "meta_mean_anomaly": 245.782,
        "meta_ephemeris_type": 0,
        "meta_classification_type": "U",
        "meta_norad_cat_id": 26818,
        "meta_element_set_no": 999,
        "meta_rev_at_epoch": 23105,
        "meta_bstar": 4.1679388e-05,
        "meta_mean_motion_dot": 5.5e-07,
        "meta_mean_motion_ddot": 0,
        "tle_line1": "1 26818U 01023A   25359.98986860  .00000055  00000+0  41679-4 0  9999",
        "tle_line2": "2 26818  82.9272 349.8993 0033242 167.7968 245.7820 13.74143057231054"
      },
      "geometry": {
        "type": "Point",
        "coordinates": [
          167.28225656420273,
          18.920897717701042
        ]
      }
    },
    {
      "type": "Feature",
      "properties": {
        "norad_id": 27436,
        "name": "COSMOS 2389",
        "group": "musson",
        "lat": 56.457046923546194,
        "lon": -52.24575840746205,
        "alt_km": 946.7209352328355,
        "timestamp": "2025-12-26T05:31:12.777391+00:00",
        "meta_object_name": "COSMOS 2389",
        "meta_object_id": "2002-026A",
        "meta_epoch": "2025-12-25T22:34:39.671616",
        "meta_mean_motion": 13.75156035,
        "meta_eccentricity": 0.0047036,
        "meta_inclination": 82.9514,
        "meta_ra_of_asc_node": 297.2128,
        "meta_arg_of_pericenter": 24.6878,
        "meta_mean_anomaly": 40.9448,
        "meta_ephemeris_type": 0,
        "meta_classification_type": "U",
        "meta_norad_cat_id": 27436,
        "meta_element_set_no": 999,
        "meta_rev_at_epoch": 18330,
        "meta_bstar": 6.1720229e-05,
        "meta_mean_motion_dot": 7.5e-07,
        "meta_mean_motion_ddot": 0,
        "tle_line1": "1 27436U 02026A   25359.94073694  .00000075  00000+0  61720-4 0  9999",
        "tle_line2": "2 27436  82.9514 297.2128 0047036  24.6878  40.9448 13.75156035183309"
      },
      "geometry": {
        "type": "Point",
        "coordinates": [
          -52.24575840746205,
          56.457046923546194
        ]
      }
    },
    {
      "type": "Feature",
      "properties": {
        "norad_id": 27818,
        "name": "COSMOS 2398",
        "group": "musson",
        "lat": -54.837611781837886,
        "lon": 92.87770965192037,
        "alt_km": 1020.6011120291832,
        "timestamp": "2025-12-26T05:31:12.777402+00:00",
        "meta_object_name": "COSMOS 2398",
        "meta_object_id": "2003-023A",
        "meta_epoch": "2025-12-25T19:56:23.371584",
        "meta_mean_motion": 13.72387179,
        "meta_eccentricity": 0.00326897,
        "meta_inclination": 82.9482,
        "meta_ra_of_asc_node": 263.0518,
        "meta_arg_of_pericenter": 76.9374,
        "meta_mean_anomaly": 347.232,
        "meta_ephemeris_type": 0,
        "meta_classification_type": "U",
        "meta_norad_cat_id": 27818,
        "meta_element_set_no": 999,
        "meta_rev_at_epoch": 12996,
        "meta_bstar": 6.8002672e-05,
        "meta_mean_motion_dot": 7.8e-07,
        "meta_mean_motion_ddot": 0,
        "tle_line1": "1 27818U 03023A   25359.83082606  .00000078  00000+0  68003-4 0  9996",
        "tle_line2": "2 27818  82.9482 263.0518 0032689  76.9374 347.2320 13.72387179129966"
      },
      "geometry": {
        "type": "Point",
        "coordinates": [
          92.87770965192037,
          -54.837611781837886
        ]
      }
    },
    {
      "type": "Feature",
      "properties": {
        "norad_id": 28380,
        "name": "COSMOS 2407",
        "group": "musson",
        "lat": -78.6714250792205,
        "lon": 60.99153181827812,
        "alt_km": 997.4432170161353,
        "timestamp": "2025-12-26T05:31:12.777414+00:00",
        "meta_object_name": "COSMOS 2407",
        "meta_object_id": "2004-028A",
        "meta_epoch": "2025-12-25T23:32:49.678656",
        "meta_mean_motion": 13.76315105,
        "meta_eccentricity": 0.00396892,
        "meta_inclination": 82.9593,
        "meta_ra_of_asc_node": 203.0885,
        "meta_arg_of_pericenter": 18.6233,
        "meta_mean_anomaly": 90.4388,
        "meta_ephemeris_type": 0,
        "meta_classification_type": "U",
        "meta_norad_cat_id": 28380,
        "meta_element_set_no": 999,
        "meta_rev_at_epoch": 7605,
        "meta_bstar": 3.84354e-05,
        "meta_mean_motion_dot": 5.3e-07,
        "meta_mean_motion_ddot": 0,
        "tle_line1": "1 28380U 04028A   25359.98113054  .00000053  00000+0  38435-4 0  9994",
        "tle_line2": "2 28380  82.9593 203.0885 0039689  18.6233  90.4388 13.76315105 76055"
      },
      "geometry": {
        "type": "Point",
        "coordinates": [
          60.99153181827812,
          -78.6714250792205
        ]
      }
    },
    {
      "type": "Feature",
      "properties": {
        "norad_id": 28521,
        "name": "COSMOS 2414",
        "group": "musson",
        "lat": 6.409186488351668,
        "lon": 175.25512950692317,
        "alt_km": 940.91780774363,
        "timestamp": "2025-12-26T05:31:12.777425+00:00",
        "meta_object_name": "COSMOS 2414",
        "meta_object_id": "2005-002A",
        "meta_epoch": "2025-12-25T22:34:05.836512",
        "meta_mean_motion": 13.87904599,
        "meta_eccentricity": 0.00414289,
        "meta_inclination": 82.9488,
        "meta_ra_of_asc_node": 174.6776,
        "meta_arg_of_pericenter": 103.105,
        "meta_mean_anomaly": 257.4742,
        "meta_ephemeris_type": 0,
        "meta_classification_type": "U",
        "meta_norad_cat_id": 28521,
        "meta_element_set_no": 999,
        "meta_rev_at_epoch": 5978,
        "meta_bstar": 4.6111122e-05,
        "meta_mean_motion_dot": 7.1e-07,
        "meta_mean_motion_ddot": 0,
        "tle_line1": "1 28521U 05002A   25359.94034533  .00000071  00000+0  46111-4 0  9994",
        "tle_line2": "2 28521  82.9488 174.6776 0041428 103.1050 257.4742 13.87904599 59781"
      },
      "geometry": {
        "type": "Point",
        "coordinates": [
          175.25512950692317,
          6.409186488351668
        ]
      }
    },
    {
      "type": "Feature",
      "properties": {
        "norad_id": 32052,
        "name": "COSMOS 2429",
        "group": "musson",
        "lat": -61.32563815869451,
        "lon": 166.38213059677582,
        "alt_km": 1001.7707284842245,
        "timestamp": "2025-12-26T05:31:12.777435+00:00",
        "meta_object_name": "COSMOS 2429",
        "meta_object_id": "2007-038A",
        "meta_epoch": "2025-12-25T21:21:35.126496",
        "meta_mean_motion": 13.75150634,
        "meta_eccentricity": 0.00384551,
        "meta_inclination": 82.9809,
        "meta_ra_of_asc_node": 333.6142,
        "meta_arg_of_pericenter": 1.6193,
        "meta_mean_anomaly": 358.508,
        "meta_ephemeris_type": 0,
        "meta_classification_type": "U",
        "meta_norad_cat_id": 32052,
        "meta_element_set_no": 999,
        "meta_rev_at_epoch": 91783,
        "meta_bstar": 4.8288402e-05,
        "meta_mean_motion_dot": 6.2e-07,
        "meta_mean_motion_ddot": 0,
        "tle_line1": "1 32052U 07038A   25359.88998989  .00000062  00000+0  48288-4 0  9993",
        "tle_line2": "2 32052  82.9809 333.6142 0038455   1.6193 358.5080 13.75150634917839"
      },
      "geometry": {
        "type": "Point",
        "coordinates": [
          166.38213059677582,
          -61.32563815869451
        ]
      }
    },
    {
      "type": "Feature",
      "properties": {
        "norad_id": 35635,
        "name": "COSMOS 2454",
        "group": "musson",
        "lat": 24.01652537946117,
        "lon": -24.739524408117497,
        "alt_km": 935.1705960931904,
        "timestamp": "2025-12-26T05:31:12.777446+00:00",
        "meta_object_name": "COSMOS 2454",
        "meta_object_id": "2009-039A",
        "meta_epoch": "2025-12-25T22:24:01.990368",
        "meta_mean_motion": 13.8993029,
        "meta_eccentricity": 0.00199529,
        "meta_inclination": 82.9559,
        "meta_ra_of_asc_node": 158.6435,
        "meta_arg_of_pericenter": 38.1138,
        "meta_mean_anomaly": 73.8458,
        "meta_ephemeris_type": 0,
        "meta_classification_type": "U",
        "meta_norad_cat_id": 35635,
        "meta_element_set_no": 999,
        "meta_rev_at_epoch": 83333,
        "meta_bstar": 5.6405863e-05,
        "meta_mean_motion_dot": 8.5e-07,
        "meta_mean_motion_ddot": 0,
        "tle_line1": "1 35635U 09039A   25359.93335637  .00000085  00000+0  56406-4 0  9993",
        "tle_line2": "2 35635  82.9559 158.6435 0019952  38.1138  73.8458 13.89930290833333"
      },
      "geometry": {
        "type": "Point",
        "coordinates": [
          -24.739524408117497,
          24.01652537946117
        ]
      }
    },
    {
      "type": "Feature",
      "properties": {
        "norad_id": 36519,
        "name": "COSMOS 2463",
        "group": "musson",
        "lat": 29.058257106545373,
        "lon": 20.735463435437303,
        "alt_km": 1011.8729607375308,
        "timestamp": "2025-12-26T05:31:12.777456+00:00",
        "meta_object_name": "COSMOS 2463",
        "meta_object_id": "2010-017A",
        "meta_epoch": "2025-12-25T14:11:33.904896",
        "meta_mean_motion": 13.71650272,
        "meta_eccentricity": 0.0034817,
        "meta_inclination": 82.9603,
        "meta_ra_of_asc_node": 17.2678,
        "meta_arg_of_pericenter": 251.0493,
        "meta_mean_anomaly": 226.2748,
        "meta_ephemeris_type": 0,
        "meta_classification_type": "U",
        "meta_norad_cat_id": 36519,
        "meta_element_set_no": 999,
        "meta_rev_at_epoch": 78413,
        "meta_bstar": 3.5333e-05,
        "meta_mean_motion_dot": 4.7e-07,
        "meta_mean_motion_ddot": 0,
        "tle_line1": "1 36519U 10017A   25359.59136464  .00000047  00000+0  35333-4 0  9996",
        "tle_line2": "2 36519  82.9603  17.2678 0034817 251.0493 226.2748 13.71650272784130"
      },
      "geometry": {
        "type": "Point",
        "coordinates": [
          20.735463435437303,
          29.058257106545373
        ]
      }
    }
  ]
}